OBJECT_NAME,OBJECT_ID,EPOCH,MEAN_MOTION,ECCENTRICITY,INCLINATION,RA_OF_ASC_NODE,ARG_OF_PERICENTER,MEAN_ANOMALY,EPHEMERIS_TYPE,CLASSIFICATION_TYPE,NORAD_CAT_ID,ELEMENT_SET_NO,REV_AT_EPOCH,BSTAR,MEAN_MOTION_DOT,MEAN_MOTION_DDOT
STARLINK-35477,2025-253V,2026-06-14T21:45:05.190912,15.27595635,.0001442,43.0029,23.3871,265.6036,94.4651,0,U,66338,999,3511,.72921E-3,.19868E-3,0
STARLINK-35443,2025-253W,2026-06-14T21:54:20.361888,15.27591143,.0000825,43.0055,23.4272,264.7469,95.3288,0,U,66339,999,3511,.54104E-3,.14661E-3,0
STARLINK-35218,2025-253X,2026-06-13T21:21:08.496288,15.27587385,.0002842,43.0063,29.5092,265.3532,94.6995,0,U,66340,999,3495,.66199E-3,.18004E-3,0
STARLINK-35522,2025-253Y,2026-06-15T00:00:04.000320,15.27543887,.0001377,43.0033,23.1096,273.0379,137.0088,0,U,66341,999,583,.17592E-2,.48411E-3,0
STARLINK-35535,2025-253Z,2026-06-14T07:58:01.131456,15.27585717,.00040601,43.0070,26.8113,264.4314,95.6075,0,U,66342,999,3502,.81250817E-3,.22171E-3,0
STARLINK-35467,2025-253AA,2026-06-14T08:14:42.548064,15.27581441,.00012339,43.0027,26.8980,90.8633,269.2360,0,U,66343,999,3502,.70096566E-3,.19078E-3,0
STARLINK-35511,2025-253AB,2026-06-14T21:15:28.756800,15.27597214,.00020623,43.0020,23.2195,283.0251,77.0371,0,U,66344,999,3511,.70968725E-3,.19329E-3,0
STARLINK-35440,2025-253AC,2026-06-14T07:59:53.295072,15.27587838,.00016369,43.0067,26.8188,274.7242,85.3423,0,U,66345,999,3502,.94119665E-3,.25734E-3,0
STARLINK-35482,2025-253AD,2026-06-14T21:35:50.095968,15.27586233,.0001431,43.0024,23.3308,258.8879,101.1811,0,U,66346,999,3511,.63253E-3,.17188E-3,0
STARLINK-35438,2025-253AE,2026-06-14T21:22:54.041664,15.27568791,.00011357,43.0004,23.2591,278.9949,81.0774,0,U,66347,999,3511,.53444384E-3,.14468E-3,0
STARLINK-35849,2025-254A,2026-06-15T05:11:23.505792,15.30203422,.0001299,53.1579,139.7220,86.2594,273.8555,0,U,66348,999,3506,.48762E-3,.14112E-3,0
STARLINK-35848,2025-254B,2026-06-15T04:18:09.741024,15.31701384,.00013,53.1599,139.4970,81.1960,278.9188,0,U,66349,999,3390,.5054E-3,.15351E-3,0
STARLINK-35829,2025-254C,2026-06-15T03:58:00.498720,15.31684408,.0000969,53.1580,139.4063,90.1144,269.9968,0,U,66350,999,3390,.79886E-3,.24494E-3,0
STARLINK-35828,2025-254D,2026-06-15T03:17:39.928416,15.31723911,.0001385,53.1575,139.2287,83.1921,276.9238,0,U,66351,999,3390,.81563E-3,.25049E-3,0
STARLINK-35850,2025-254E,2026-06-15T03:56:56.972256,15.30218147,.0001286,53.1584,139.3969,92.3907,267.7241,0,U,66352,999,3390,.44843E-3,.12953E-3,0
STARLINK-35869,2025-254F,2026-06-15T05:21:52.161696,15.30197124,.0001157,53.1576,139.0509,77.7786,282.3344,0,U,66353,999,3391,.49998E-3,.14476E-3,0
STARLINK-35895,2025-254G,2026-06-15T05:14:26.526048,15.30195852,.0000959,53.1571,139.7419,85.6782,274.4328,0,U,66354,999,3390,.29002E-3,.8239E-4,0
STARLINK-35861,2025-254H,2026-06-15T05:05:18.879648,15.30203439,.0001102,53.1578,139.6943,82.9132,277.1994,0,U,66355,999,3390,.58953E-3,.17143E-3,0
STARLINK-35851,2025-254J,2026-06-15T05:00:45.428832,15.30202267,.0001248,53.1576,139.6739,89.5280,270.5864,0,U,66356,999,3390,.56952E-3,.16547E-3,0
STARLINK-35817,2025-254K,2026-06-15T04:47:04.984800,15.30200157,.0001156,53.1586,139.6177,72.3318,287.7809,0,U,66357,999,3390,.66564E-3,.19407E-3,0
STARLINK-35807,2025-254L,2026-06-15T05:25:14.038752,15.31703103,.000143,53.1579,139.0728,97.0173,263.0991,0,U,66358,999,3391,.27823E-3,.8279E-4,0
STARLINK-35805,2025-254M,2026-06-15T04:38:10.846176,15.31724186,.0001434,53.1591,138.8687,77.7232,282.3930,0,U,66359,999,3504,.80327E-3,.24663E-3,0
STARLINK-35823,2025-254N,2026-06-15T03:55:26.334336,15.30209551,.000115,53.1573,139.3871,85.6112,274.5020,0,U,66360,999,3390,.74606E-3,.21809E-3,0
STARLINK-35813,2025-254P,2026-06-15T04:44:54.380832,15.31708245,.0001215,53.1588,138.8987,74.3676,285.7459,0,U,66361,999,3391,.63064E-3,.1926E-3,0
STARLINK-35822,2025-254Q,2026-06-15T05:08:21.185376,15.30209241,.0001151,53.1578,139.7044,76.3809,283.7320,0,U,66362,999,3390,.50078E-3,.14506E-3,0
STARLINK-35806,2025-254R,2026-06-15T05:18:58.336128,15.30223236,.0001218,53.1572,139.7514,89.4504,270.6636,0,U,66363,999,3390,.56182E-3,.16329E-3,0
STARLINK-35797,2025-254S,2026-06-15T05:03:47.790720,15.30195481,.000115,53.1578,139.6870,92.3451,267.7681,0,U,66364,999,3390,.74875E-3,.21879E-3,0
STARLINK-35827,2025-254T,2026-06-15T04:04:42.788352,15.31709263,.000099,53.1587,139.4338,80.9145,279.1968,0,U,66365,999,3390,.6101E-3,.1862E-3,0
STARLINK-35845,2025-254U,2026-06-15T04:11:26.206368,15.31709740,.0001495,53.1594,139.4632,87.7720,272.3452,0,U,66366,999,3390,.62861E-3,.19197E-3,0
STARLINK-35846,2025-254V,2026-06-15T05:23:23.311104,15.30194782,.0001377,53.1580,139.0583,93.3764,266.7394,0,U,66367,999,3391,.25426E-3,.7177E-4,0
