STARLINK-35477          
1 66338U 25253V   26165.90631008  .00019868  00000+0  72921-3 0  9995
2 66338  43.0029  23.3871 0001442 265.6036  94.4651 15.27595635 35116
STARLINK-35443          
1 66339U 25253W   26165.91273567  .00014661  00000+0  54104-3 0  9998
2 66339  43.0055  23.4272 0000825 264.7469  95.3288 15.27591143 35112
STARLINK-35218          
1 66340U 25253X   26164.88968167  .00018004  00000+0  66199-3 0  9994
2 66340  43.0063  29.5092 0002842 265.3532  94.6995 15.27587385 34950
STARLINK-35522          
1 66341U 25253Y   26166.00004630  .00048411  00000+0  17592-2 0  9994
2 66341  43.0033  23.1096 0001377 273.0379 137.0088 15.27543887  5838
STARLINK-35535          
1 66342U 25253Z   26165.33195754  .00022171  00000+0  81251-3 0  9997
2 66342  43.0070  26.8113 0004060 264.4314  95.6075 15.27585717 35022
STARLINK-35467          
1 66343U 25253AA  26165.34354801  .00019078  00000+0  70097-3 0  9997
2 66343  43.0027  26.8980 0001233  90.8633 269.2360 15.27581441 35027
STARLINK-35511          
1 66344U 25253AB  26165.88574950  .00019329  00000+0  70969-3 0  9993
2 66344  43.0020  23.2195 0002062 283.0251  77.0371 15.27597214 35115
STARLINK-35440          
1 66345U 25253AC  26165.33325573  .00025734  00000+0  94120-3 0  9991
2 66345  43.0067  26.8188 0001636 274.7242  85.3423 15.27587838 35022
STARLINK-35482          
1 66346U 25253AD  26165.89988537  .00017188  00000+0  63253-3 0  9995
2 66346  43.0024  23.3308 0001431 258.8879 101.1811 15.27586233 35110
STARLINK-35438          
1 66347U 25253AE  26165.89090326  .00014468  00000+0  53444-3 0  9995
2 66347  43.0004  23.2591 0001135 278.9949  81.0774 15.27568791 35117
STARLINK-35849          
1 66348U 25254A   26166.21624428  .00014112  00000+0  48762-3 0  9993
2 66348  53.1579 139.7220 0001299  86.2594 273.8555 15.30203422 35069
STARLINK-35848          
1 66349U 25254B   26166.17927941  .00015351  00000+0  50540-3 0  9998
2 66349  53.1599 139.4970 0001300  81.1960 278.9188 15.31701384 33905
STARLINK-35829          
1 66350U 25254C   26166.16528355  .00024494  00000+0  79886-3 0  9997
2 66350  53.1580 139.4063 0000969  90.1144 269.9968 15.31684408 33907
STARLINK-35828          
1 66351U 25254D   26166.13726769  .00025049  00000+0  81563-3 0  9996
2 66351  53.1575 139.2287 0001385  83.1921 276.9238 15.31723911 33907
STARLINK-35850          
1 66352U 25254E   26166.16454829  .00012953  00000+0  44843-3 0  9995
2 66352  53.1584 139.3969 0001286  92.3907 267.7241 15.30218147 33903
STARLINK-35869          
1 66353U 25254F   26166.22352039  .00014476  00000+0  49998-3 0  9991
2 66353  53.1576 139.0509 0001157  77.7786 282.3344 15.30197124 33910
STARLINK-35895          
1 66354U 25254G   26166.21836257  .00008239  00000+0  29002-3 0  9994
2 66354  53.1571 139.7419 0000959  85.6782 274.4328 15.30195852 33905
STARLINK-35861          
1 66355U 25254H   26166.21202407  .00017143  00000+0  58953-3 0  9990
2 66355  53.1578 139.6943 0001102  82.9132 277.1994 15.30203439 33904
STARLINK-35851          
1 66356U 25254J   26166.20885913  .00016547  00000+0  56952-3 0  9993
2 66356  53.1576 139.6739 0001248  89.5280 270.5864 15.30202267 33905
STARLINK-35817          
1 66357U 25254K   26166.19936325  .00019407  00000+0  66564-3 0  9994
2 66357  53.1586 139.6177 0001156  72.3318 287.7809 15.30200157 33908
STARLINK-35807          
1 66358U 25254L   26166.22585693  .00008279  00000+0  27823-3 0  9997
2 66358  53.1579 139.0728 0001430  97.0173 263.0991 15.31703103 33915
STARLINK-35805          
1 66359U 25254M   26166.19318109  .00024663  00000+0  80327-3 0  9993
2 66359  53.1591 138.8687 0001434  77.7232 282.3930 15.31724186 35043
STARLINK-35823          
1 66360U 25254N   26166.16349924  .00021809  00000+0  74606-3 0  9993
2 66360  53.1573 139.3871 0001150  85.6112 274.5020 15.30209551 33905
STARLINK-35813          
1 66361U 25254P   26166.19785163  .00019260  00000+0  63064-3 0  9990
2 66361  53.1588 138.8987 0001215  74.3676 285.7459 15.31708245 33912
STARLINK-35822          
1 66362U 25254Q   26166.21413409  .00014506  00000+0  50078-3 0  9994
2 66362  53.1578 139.7044 0001151  76.3809 283.7320 15.30209241 33900
STARLINK-35806          
1 66363U 25254R   26166.22150852  .00016329  00000+0  56182-3 0  9993
2 66363  53.1572 139.7514 0001218  89.4504 270.6636 15.30223236 33903
STARLINK-35797          
1 66364U 25254S   26166.21096980  .00021879  00000+0  74875-3 0  9999
2 66364  53.1578 139.6870 0001150  92.3451 267.7681 15.30195481 33900
STARLINK-35827          
1 66365U 25254T   26166.16993968  .00018620  00000+0  61010-3 0  9993
2 66365  53.1587 139.4338 0000990  80.9145 279.1968 15.31709263 33907
STARLINK-35845          
1 66366U 25254U   26166.17460887  .00019197  00000+0  62861-3 0  9999
2 66366  53.1594 139.4632 0001495  87.7720 272.3452 15.31709740 33901
STARLINK-35846          
1 66367U 25254V   26166.22457536  .00007177  00000+0  25426-3 0  9994
2 66367  53.1580 139.0583 0001377  93.3764 266.7394 15.30194782 33914
